ENTRYSAT                
1 44429U 98067QP  20022.52535334  .00008736  00000-0  13472-3 0  9993
2 44429  51.6411 349.6772 0003287 127.2260 232.9032 15.55008324 31638
VCC C                   
1 44430U 98067QQ  20023.28094940  .00012072  00000-0  18040-3 0  9996
2 44430  51.6416 345.7283 0003329 138.1190 222.0056 15.55460158 30574
VCC B                   
1 44431U 98067QR  20023.19739405  .00008420  00000-0  13217-3 0  9992
2 44431  51.6419 346.6684 0003531 138.5623 221.5636 15.54571377 31678
DUCHIFAT-3              
1 44854U 19089C   20023.61733207  .00000119  00000-0  16142-4 0  9997
2 44854  36.9673 240.1413 0009758 318.6559  41.3473 14.98953335  6404
